ICEYE-X40               
1 60549U 24149CK  26062.14423698  .00002647  00000+0  23191-3 0  9994
2 60549  97.6868 140.3479 0005691  80.1844 280.0020 14.97512924 84204
SATELIOT_1              
1 60550U 24149CL  26062.20781042  .00002614  00000+0  22881-3 0  9992
2 60550  97.6812 139.8788 0007526  75.5875 284.6182 14.97560730 84209
BRO-14                  
1 60551U 24149CM  26062.18448189  .00001347  00000+0  12547-3 0  9992
2 60551  97.6948 139.8556 0008180  92.5356 267.6802 14.95908016 84147
SATELIOT_3              
1 60552U 24149CN  26062.18325640  .00002497  00000+0  21876-3 0  9991
2 60552  97.6904 140.5488 0006574  81.1862 279.0105 14.97563647 84214
BRO-15                  
1 60553U 24149CP  26062.16424015  .00001639  00000+0  15165-3 0  9997
2 60553  97.6878 139.5373 0009661  85.0581 275.1743 14.95874124 84158
UM5-RIBAT               
1 60554U 24149CQ  26062.19340874  .00003927  00000+0  31720-3 0  9998
2 60554  97.6815 141.3937 0003943  98.6424 261.5246 15.00399521 84292
UM5-EOSAT               
1 60555U 24149CR  26062.18935979  .00004413  00000+0  35167-3 0  9994
2 60555  97.6894 142.2153 0009247 125.2049 235.0042 15.00826376 84319
LASARSAT                
1 62391U 24247Q   26062.19837824  .00033989  00000+0  84764-3 0  9991
2 62391  44.9762 134.8764 0002946 344.9527  15.1273 15.39670734 66942
CROCUBE                 
1 62394U 24247T   26061.26034033  .00038674  00000+0  93070-3 0  9998
2 62394  44.9736 138.7841 0003212 324.6496  35.4178 15.40697026 66812
TEVEL2-4                
1 63213U 25052D   26061.69961236  .00022254  00000+0  75407-3 0  9996
2 63213  97.4040 318.1473 0004459 108.3721 251.8005 15.30565789 53808
TEVEL2-5                
1 63214U 25052E   26062.16770052  .00022095  00000+0  75087-3 0  9991
2 63214  97.4034 318.5881 0004480 107.9794 252.1935 15.30472372 53876
TEVEL2-6                
1 63215U 25052F   26062.17735064  .00022399  00000+0  76213-3 0  9996
2 63215  97.4039 318.5831 0004565 109.1661 251.0075 15.30430207 53872
TEVEL2-1                
1 63217U 25052H   26062.17382953  .00021842  00000+0  75273-3 0  9990
2 63217  97.4013 318.3187 0004409 117.8452 242.3236 15.30019936 53862
TEVEL2-3                
1 63218U 25052J   26062.17155620  .00021373  00000+0  73592-3 0  9991
2 63218  97.4017 318.3270 0004368 119.1899 240.9779 15.30053897 53864
TEVEL2-2                
1 63219U 25052K   26061.45508269  .00022969  00000+0  79209-3 0  9996
2 63219  97.4017 317.6037 0004235 120.2136 239.9524 15.29988876 53754
TEVEL2-9                
1 63237U 25052AD  26061.69733037  .00019983  00000+0  72566-3 0  9996
2 63237  97.4078 317.4266 0007313 144.2958 215.8772 15.28311423 53745
TEVEL2-7                
1 63238U 25052AE  26061.26227880  .00020443  00000+0  74741-3 0  9994
2 63238  97.4081 316.9483 0007453 146.3242 213.8472 15.28082137 53673
